NUSAT-1 (FRESCO)        
1 41557U 16033B   22207.42188970  .00011405  00000+0  33203-3 0  9991
2 41557  97.3900 305.2085 0009356 231.6409 192.7195 15.35533338343365
BEESAT-4                
1 41619U 16040W   22206.85861729  .00007916  00000+0  25767-3 0  9992
2 41619  97.2147 256.4791 0008354 350.4545   9.6537 15.32089127326608
CAS-2T & KS-1Q          
1 41847U 16066G   22206.80585847  .00000810  00000+0  12969-3 0  9998
2 41847  98.5490 271.4309 0364751  95.1805 269.1109 14.38663411299860
NAYIF-1 (EO-88)         
1 42017U 17008BX  22207.41271272  .00014446  00000+0  41689-3 0  9998
2 42017  97.2672 272.9845 0006562 105.9783 254.2184 15.35767309303051
ZHUHAI-1 02 (CAS-4B)    
1 42759U 17034B   22207.23088315  .00003741  00000+0  22578-3 0  9996
2 42759  43.0166 118.9208 0008763 182.1511 314.6941 15.12150217282220
ZHUHAI-1 01 (CAS-4A)    
1 42761U 17034D   22207.26537763  .00003656  00000+0  22044-3 0  9991
2 42761  43.0172 117.4863 0008561 182.6939 319.4160 15.12235420282233
MAX VALIER SAT          
1 42778U 17036P   22207.11047552  .00005077  00000+0  19071-3 0  9992
2 42778  97.2027 246.8907 0010873 178.6444 181.4827 15.27560727282809
RADFXSAT (FOX-1B)       
1 43017U 17073E   22207.14057565  .00003516  00000+0  26424-3 0  9994
2 43017  97.6712  99.7471 0249329  61.3285 301.2751 14.81649027252842
FOX-1D (AO-92)          
1 43137U 18004AC  22207.14778428  .00007698  00000+0  26711-3 0  9994
2 43137  97.3677 281.9687 0006708 213.4857 146.5961 15.30049305252259
DIWATA-2B               
1 43678U 18084H   22207.40927066  .00001285  00000+0  13170-3 0  9996
2 43678  97.9758 341.1427 0010512 149.8850 210.2972 14.92235358203663
ES'HAIL 2               
1 43700U 18090A   22207.32769236  .00000147  00000+0  00000+0 0  9993
2 43700   0.0165  56.3023 0001665 124.9553 266.5326  1.00273325 13663
FOX-1CLIFF (AO-95)      
1 43770U 18099N   22206.63568716  .00001408  00000+0  12836-3 0  9997
2 43770  97.6189 271.9944 0014879 143.9488 216.2740 14.96600017198728
ITASAT 1                
1 43786U 18099AE  22206.62550737  .00000834  00000+0  77828-4 0  9992
2 43786  97.6224 272.9235 0015785 136.1388 224.1090 14.96728671198766
JY1SAT (JO-97)          
1 43803U 18099AX  22207.16489774  .00001279  00000+0  11514-3 0  9997
2 43803  97.6180 273.2157 0015508 134.1424 226.1076 14.97259875198869
UWE-4                   
1 43880U 18111E   22207.00303754  .00001540  00000+0  13408-3 0  9998
2 43880  97.6641 112.6413 0011879 185.4500 174.6595 14.98335616193472
NEXUS (FO-99)           
1 43937U 19003F   22206.53296093  .00008443  00000+0  27780-3 0  9993
2 43937  97.1283 238.4157 0020511  23.3768 336.8402 15.31544497195808
PSAT2 (NO-104)          
1 44354U 19036R   22206.84754381  .00035880 -57241-5  29043-3 0  9991
2 44354  28.5234 271.3511 0216902  45.0945 316.7043 15.43690238170613
JAISAT-1                
1 44419U 19038F   22207.40519889  .00006553  00000+0  32539-3 0  9993
2 44419  97.6370 177.8593 0018961   2.8797 357.2542 15.17876875168967
DUCHIFAT-3              
1 44854U 19089C   22207.44359804  .00002711  00000+0  21268-3 0  9994
2 44854  36.9663 229.1597 0007771 185.0723 318.1155 15.01306636143792
CAS-6 (TO-108)          
1 44881U 19093C   22207.47531964  .00000576  00000+0  79526-4 0  9999
2 44881  97.8925 286.1243 0016355  61.7852 298.5004 14.81770935140550
RS-44 & BREEZE-KM R/B   
1 44909U 19096E   22206.73449775  .00000029  00000+0  75533-4 0  9996
2 44909  82.5200 204.8424 0216430 230.0400 128.1517 12.79714145120407
ORBITAL FACTORY 2 (OF-2)
1 45113U 19071C   22207.46839963  .00016134  00000+0  31923-3 0  9998
2 45113  51.6358 227.1528 0009750 325.2116  34.8233 15.47203199139414
HUSKYSAT-1 (HO-107)     
1 45119U 19071J   22207.11216717  .00012485  00000+0  25909-3 0  9994
2 45119  51.6361 229.2455 0009432 319.6978  40.3309 15.46053907139343
BY70-2                  
1 45857U 20042B   22207.50357339  .00006807  00000+0  89981-3 0  9993
2 45857  97.9537 283.9784 0009871   0.0357   0.0816 14.80264589111232
SALSAT                  
1 46495U 20068K   22206.80277823  .00001302  00000+0  96830-4 0  9998
2 46495  97.7297 148.1208 0017243 143.4760 216.7646 15.04647936 99956
BY70-3                  
1 46839U 20079N   22207.41926204  .00020940  00000+0  46778-3 0  9998
2 46839  97.1968 279.0361 0005863 174.3169 250.7400 15.43528506 96252
RADFXSAT-2 (AO-109)     
1 47311U 21002C   22206.74460363  .00005240  00000+0  21271-3 0  9992
2 47311  60.6835 218.0480 0023539   6.9627 353.1784 15.25810349 84305
UVSQ-SAT                
1 47438U 21006AB  22206.63208958  .00003894  00000+0  20525-3 0  9998
2 47438  97.4354 264.8621 0013069 137.5228 222.7019 15.16090952 83064
DIY-1 (ARDUIQUBE)       
1 47963U 21022AH  22207.20890307  .00013513  00000+0  73303-3 0  9999
2 47963  97.5289 108.1384 0016736   6.3158 353.8281 15.14562321 72810
XW-3 (CAS-9)            
1 50466U 21131B   22207.54114895  .00000019  00000+0  20662-4 0  9998
2 50466  98.5800 284.7756 0005194  46.8856 313.2765 14.38512190 30530
TEVEL-3                 
1 50988U 22002E   22207.47047547  .00006276  00000+0  34049-3 0  9990
2 50988  97.4799 273.8071 0008110 292.9553 126.3198 15.14880421 29320
TEVEL-8                 
1 50989U 22002F   22207.41033741  .00006236  00000+0  33889-3 0  9993
2 50989  97.4818 273.7698 0008142 292.0260 124.3794 15.14827061 29318
TEVEL-5                 
1 50998U 22002Q   22207.28327749  .00006534  00000+0  34945-3 0  9997
2 50998  97.4789 273.7361 0009635 288.2452 144.3469 15.15363900 29308
TEVEL-6                 
1 50999U 22002R   22207.41191034  .00006482  00000+0  34664-3 0  9999
2 50999  97.4790 273.8599 0009598 286.5130 129.8493 15.15369284 29325
TEVEL-1                 
1 51013U 22002AF  22207.47311523  .00006264  00000+0  34012-3 0  9995
2 51013  97.4789 273.7905 0007946 292.2668 125.9780 15.14855429 29322
TEVEL-7                 
1 51062U 22002CG  22207.47824633  .00006312  00000+0  34302-3 0  9996
2 51062  97.4799 273.8236 0008161 290.4298 127.6517 15.14819122 29321
TEVEL-4                 
1 51063U 22002CH  22207.55462146  .00006280  00000+0  34141-3 0  9998
2 51063  97.4812 273.8967 0008033 290.4584 180.1771 15.14811446 29333
TEVEL-2                 
1 51069U 22002CP  22207.47127727  .00006256  00000+0  33953-3 0  9991
2 51069  97.4783 273.7954 0008050 292.9044 124.2334 15.14872751 29327
